COSMOS 2251             
1 22675U 93036A   25068.50555834  .00000204  00000+0  83624-4 0  9991
2 22675  74.0371 104.2097 0026057 257.2709 102.5530 14.33098349657874
COSMOS 2251 DEB         
1 33757U 93036E   25068.61181648  .00000162  00000+0  69246-4 0  9991
2 33757  74.0346 111.3101 0015206 200.7857 281.3228 14.32492370840139
COSMOS 2251 DEB         
1 33758U 93036F   25068.93093422  .00006882  00000+0  18120-2 0  9997
2 33758  74.0314  17.2773 0018005 163.6268 261.5897 14.49116437842776
COSMOS 2251 DEB         
1 33759U 93036G   25068.78251446  .00168597  00000+0  57200-2 0  9997
2 33759  73.9884 178.6529 0016571 350.7556 133.0721 15.29621407849574
COSMOS 2251 DEB         
1 33760U 93036H   25068.45173242  .00000574  00000+0  20853-3 0  9995
2 33760  74.0296  72.1016 0021767 242.9703 234.9789 14.35437704841313
COSMOS 2251 DEB         
1 33761U 93036J   25068.93320931  .00002838  00000+0  87933-3 0  9995
2 33761  74.0365  47.1605 0024175 203.8256 187.1360 14.41470790842305
COSMOS 2251 DEB         
1 33762U 93036K   25068.43390638  .00000202  00000+0  82270-4 0  9995
2 33762  74.0391  98.7906 0016278 235.4198 240.1887 14.33556519840590
COSMOS 2251 DEB         
1 33764U 93036M   25068.43459685  .00001886  00000+0  62089-3 0  9999
2 33764  74.0318  66.2656 0020999  99.5958  14.3533 14.38749361841539
COSMOS 2251 DEB         
1 33765U 93036N   25068.93873312  .00035197  00000+0  30524-2 0  9992
2 33765  74.0145  19.2542 0095359 185.6335 235.8936 14.93417312854516
COSMOS 2251 DEB         
1 33766U 93036P   25068.88147033  .00002315  00000+0  82164-3 0  9995
2 33766  74.1860 279.1152 0065528 201.1911 158.6526 14.33777443837612
COSMOS 2251 DEB         
1 33768U 93036R   25068.82115876  .00000588  00000+0  53849-3 0  9999
2 33768  74.0691 308.3066 0368684 168.0137 270.4711 13.58148155795221
COSMOS 2251 DEB         
1 33779U 93036U   25068.86255576  .00018020  00000+0  35052-2 0  9992
2 33779  74.0479 346.6439 0018370 106.0733 316.4053 14.62974830844536
COSMOS 2251 DEB         
1 33782U 93036X   25068.43190228  .00002290  00000+0  74069-3 0  9995
2 33782  74.0313  71.8693 0022142 213.7427 269.4048 14.39492004841208
COSMOS 2251 DEB         
1 33784U 93036Z   25068.89603537  .00116556  00000+0  52928-2 0  9999
2 33784  74.1696  23.0530 0030853 270.7483 148.9450 15.19792418858585
COSMOS 2251 DEB         
1 33785U 93036AA  25068.89320093  .00022019  00000+0  42253-2 0  9993
2 33785  73.8684 241.9397 0024305 240.0767 230.6901 14.63466683844317
COSMOS 2251 DEB         
1 33789U 93036AE  25068.77371069  .00001038  00000+0  70283-3 0  9996
2 33789  74.0642 198.9445 0241634  18.4889  90.5693 13.88244444812378
COSMOS 2251 DEB         
1 33791U 93036AG  25068.75072649  .00004572  00000+0  14134-2 0  9997
2 33791  74.1756 188.7766 0028659  98.3458  19.2295 14.41313261840449
COSMOS 2251 DEB         
1 33792U 93036AH  25068.47692709  .00000953  00000+0  93790-3 0  9997
2 33792  73.8976  69.5665 0432015 184.5439 302.1336 13.45315963786999
COSMOS 2251 DEB         
1 33793U 93036AJ  25068.68277693  .00002700  00000+0  10946-2 0  9995
2 33793  73.9824 294.7466 0080490 148.2161 269.4925 14.26418785832402
COSMOS 2251 DEB         
1 33795U 93036AL  25068.70278389  .00030031  00000+0  28302-2 0  9996
2 33795  74.0352 280.8318 0045650  84.8973 348.5437 14.92884702858560
COSMOS 2251 DEB         
1 33797U 93036AN  25068.81135517  .00004310  00000+0  95462-3 0  9998
2 33797  74.0476 202.4419 0064736   0.2617 114.7210 14.56177494849378
COSMOS 2251 DEB         
1 33798U 93036AP  25068.68531841  .00000814  00000+0  23329-3 0  9992
2 33798  74.0289 293.6316 0091482 123.5206 294.4836 14.44177326845793
COSMOS 2251 DEB         
1 33799U 93036AQ  25068.64241536  .00029348  00000+0  47992-2 0  9992
2 33799  74.0322 265.3748 0030913  55.3430  13.6564 14.70387198847116
COSMOS 2251 DEB         
1 33805U 93036AW  25068.53905687  .00001848  00000+0  40800-3 0  9999
2 33805  74.0296 120.1743 0062102  16.2339 344.0795 14.56867957851747
COSMOS 2251 DEB         
1 33811U 93036BC  25068.78072881  .00027173  00000+0  25520-2 0  9994
2 33811  73.8434 153.5322 0043158 300.6084 199.5887 14.93130102858530
COSMOS 2251 DEB         
1 33813U 93036BE  25068.87510104  .00063022  00000+0  28638-2 0  9997
2 33813  74.0255 142.2099 0045504 285.7265  73.8915 15.19512112863089
COSMOS 2251 DEB         
1 33815U 93036BG  25068.92332917  .00051434  00000+0  66940-2 0  9991
2 33815  73.9712  19.2757 0032153 186.1042 230.5614 14.79992990842192
COSMOS 2251 DEB         
1 33816U 93036BH  25068.81442621  .00001112  00000+0  81684-3 0  9995
2 33816  73.8950 216.3080 0267728 281.6425  75.4765 13.81302486808359
COSMOS 2251 DEB         
1 33818U 93036BK  25068.93309650  .00038441  00000+0  34879-2 0  9992
2 33818  74.0859  11.8145 0033749  86.4948 340.4439 14.94683061856898
COSMOS 2251 DEB         
1 33819U 93036BL  25068.93328703  .00003351  00000+0  12280-2 0  9997
2 33819  74.1833 351.8333 0092421 289.7554 147.9885 14.30847847835202
COSMOS 2251 DEB         
1 33821U 93036BN  25068.86142983  .00029012  00000+0  16139-2 0  9995
2 33821  74.0421   3.4373 0071700 117.9697 242.8777 15.11322552707853
COSMOS 2251 DEB         
1 33822U 93036BP  25068.81004931  .00005689  00000+0  28288-2 0  9993
2 33822  74.0745 323.5074 0156319  80.5505 344.6241 14.11079670821314
COSMOS 2251 DEB         
1 33823U 93036BQ  25068.65913315  .00001748  00000+0  10299-2 0  9996
2 33823  73.8087 276.3125 0210985  89.5810 334.3799 13.98117278817221
COSMOS 2251 DEB         
1 33825U 93036BS  25068.85327394  .00017786  00000+0  31402-2 0  9994
2 33825  73.9867 206.1861 0090167 241.6815 242.4209 14.64776263848039
COSMOS 2251 DEB         
1 33826U 93036BT  25068.80339145  .00010005  00000+0  26340-2 0  9999
2 33826  74.0631 210.2672 0093883 327.7524 160.1045 14.46517451837436
COSMOS 2251 DEB         
1 33828U 93036BV  25068.95211248  .00002840  00000+0  84820-3 0  9996
2 33828  74.0478  34.1724 0029973 182.5031 233.8686 14.43172171843043
COSMOS 2251 DEB         
1 33830U 93036BX  25068.44915786  .00012819  00000+0  19822-2 0  9997
2 33830  74.0337  54.0869 0049190 248.9502 280.0963 14.72495778853691
COSMOS 2251 DEB         
1 33832U 93036BZ  25068.95787395  .00012831  00000+0  28883-2 0  9999
2 33832  74.0571  18.1436 0025337 129.1418 296.3792 14.56255466843753
COSMOS 2251 DEB         
1 33834U 93036CB  25068.79468131  .00176735  00000+0  53467-2 0  9997
2 33834  74.0501 212.4373 0023082 347.4110  12.6515 15.33154535861322
COSMOS 2251 DEB         
1 33835U 93036CC  25068.91568581  .00007664  00000+0  15978-2 0  9991
2 33835  74.0572 271.1095 0058563  37.5418  27.8293 14.59011602847334
COSMOS 2251 DEB         
1 33836U 93036CD  25068.17967067  .00012886  00000+0  19849-2 0  9995
2 33836  73.9983  85.9236 0028142 357.7654  76.1107 14.73215927852335
COSMOS 2251 DEB         
1 33837U 93036CE  25068.79439166  .00002775  00000+0  71971-3 0  9999
2 33837  74.0122 218.5482 0034406 148.7748 211.5466 14.49891184847663
COSMOS 2251 DEB         
1 33838U 93036CF  25068.76733067  .00002471  00000+0  67965-3 0  9995
2 33838  74.0391 309.9269 0027429 142.8632 281.2140 14.47256369845461
COSMOS 2251 DEB         
1 33839U 93036CG  25068.95437185  .00002330  00000+0  43326-3 0  9998
2 33839  74.0422  19.7702 0087129 204.5174 217.8804 14.63306817855156
COSMOS 2251 DEB         
1 33841U 93036CJ  25068.93882538  .00001151  00000+0  39331-3 0  9996
2 33841  74.0357  69.3177 0022110 224.8401 156.4607 14.37349219841226
COSMOS 2251 DEB         
1 33842U 93036CK  25068.88640131  .00001783  00000+0  54516-3 0  9995
2 33842  74.0358  15.0625 0048418 193.4659 166.5209 14.41887986843314
COSMOS 2251 DEB         
1 33844U 93036CM  25068.79284447  .00002452  00000+0  89499-3 0  9993
2 33844  74.0673 199.8805 0049922 292.7691 218.0536 14.32882472837434
COSMOS 2251 DEB         
1 33848U 93036CR  25068.92819766  .00005649  00000+0  17183-2 0  9991
2 33848  74.0329 153.5357 0047193 282.4491 198.0303 14.41651560838248
COSMOS 2251 DEB         
1 33890U 93036CT  25068.40436992  .00152715  00000+0  83381-2 0  9997
2 33890  73.9931  64.2629 0029122 270.3798  89.4059 15.13207573852608
COSMOS 2251 DEB         
1 33892U 93036CV  25068.95730752  .00002042  00000+0  87187-3 0  9996
2 33892  73.8009 248.3357 0115620 328.7066 157.8171 14.22175998830046
COSMOS 2251 DEB         
1 33894U 93036CX  25068.72261112  .00006902  00000+0  72483-2 0  9993
2 33894  73.7659  58.7855 0574324  17.0313 344.9193 13.19920382770379
COSMOS 2251 DEB         
1 33896U 93036CZ  25068.73416030  .00002743  00000+0  12488-2 0  9995
2 33896  73.7687 300.9250 0129273 163.4607 261.2075 14.17834393827989
COSMOS 2251 DEB         
1 33899U 93036DC  25068.90934693  .00007701  00000+0  16301-2 0  9994
2 33899  74.0521 255.0913 0060759  29.5302 115.5840 14.58236872847858
COSMOS 2251 DEB         
1 33900U 93036DD  25068.70124043  .00004033  00000+0  89339-3 0  9992
2 33900  74.0202 168.9171 0049534  26.5214 123.4443 14.56727908849854
COSMOS 2251 DEB         
1 33901U 93036DE  25068.91266270  .00040305  00000+0  36805-2 0  9996
2 33901  73.7722 265.5901 0059578  88.8012 271.9995 14.93492907853405
COSMOS 2251 DEB         
1 33905U 93036DJ  25068.51813339  .00002246  00000+0  79953-3 0  9994
2 33905  73.8848 111.0301 0057206  53.1884  73.3415 14.33969267836972
COSMOS 2251 DEB         
1 33906U 93036DK  25068.53118192  .00013245  00000+0  32520-2 0  9991
2 33906  74.0319 127.8752 0041497 238.7305 237.1291 14.51865765839634
COSMOS 2251 DEB         
1 33907U 93036DL  25068.68338406  .00010639  00000+0  40535-2 0  9999
2 33907  74.0707 177.1324 0125885 304.0734 174.7814 14.26641795826096
COSMOS 2251 DEB         
1 33908U 93036DM  25068.82283981  .00010211  00000+0  50598-2 0  9999
2 33908  73.8415 337.8833 0227102  52.5942 309.5627 14.04794998815673
COSMOS 2251 DEB         
1 33911U 93036DQ  25068.82710435  .00022592  00000+0  40090-2 0  9993
2 33911  74.0963 339.6556 0011540 351.0337  73.0362 14.67110919845588
